SAUDISAT 1C             
1 27607U 02058C   22260.59101310  .00000825  00000+0  13307-3 0  9990
2 27607  64.5565  19.9201 0081459 276.8191  82.3648 14.76243295 61975
SAUDISAT 2              
1 28371U 04025F   22260.46421431 -.00000027  00000+0  46413-5 0  9991
2 28371  98.3860 217.4325 0025546 179.0193 181.1033 14.54596439966663
SAUDISAT 3              
1 31118U 07012B   22260.44350211  .00000221  00000+0  45547-4 0  9999
2 31118  97.9756 205.2953 0013686 262.5414  97.4237 14.69366092826614
PISAT                   
1 41784U 16059B   22260.34324638  .00000504  00000+0  10436-3 0  9995
2 41784  97.9081 300.0851 0030553 237.6107 122.2139 14.63998634319139
FLYING LAPTOP           
1 42831U 17042G   22260.35173029  .00001694  00000+0  17225-3 0  9993
2 42831  97.4135 109.4288 0015254  63.4260 296.8488 14.91931996281793
SALSAT                  
1 46495U 20068K   22260.40046566  .00002886  00000+0  20818-3 0  9992
2 46495  97.7333 201.7701 0015717 330.7367  29.2977 15.04846467108011
